#cP2022  1  7  0  0  0.00000000     192 ORBIT IGb14 HLM  IGS
## 2191 432000.00000000   900.00000000 59586 0.0000000000000
+   32   G01G02G03G04G05G06G07G08G09G10G11G12G13G14G15G16G17
+        G18G19G20G21G22G23G24G25G26G27G28G29G30G31G32  0  0
+          0  0  0  0  0  0  0  0  0  0  0  0  0  0  0  0  0
+          0  0  0  0  0  0  0  0  0  0  0  0  0  0  0  0  0
+          0  0  0  0  0  0  0  0  0  0  0  0  0  0  0  0  0
++         3  3  5  4  4  3  4  3  4  5  4  3  4  4  4  3  3
++         4  3  4  4  4  5  3  3  3  4  3  4  3  4  4  0  0
++         0  0  0  0  0  0  0  0  0  0  0  0  0  0  0  0  0
++         0  0  0  0  0  0  0  0  0  0  0  0  0  0  0  0  0
++         0  0  0  0  0  0  0  0  0  0  0  0  0  0  0  0  0
%c G  cc GPS ccc cccc cccc cccc cccc ccccc ccccc ccccc ccccc
%c cc cc ccc ccc cccc cccc cccc cccc ccccc ccccc ccccc ccccc
%f  1.2500000  1.025000000  0.00000000000  0.000000000000000
%f  0.0000000  0.000000000  0.00000000000  0.000000000000000
%i    0    0    0    0      0      0      0      0         0
%i    0    0    0    0      0      0      0      0         0
/* ULTRA ORBIT COMBINATION 21916_00 (59587.000) FROM:       
/* cou emu esu gfu siu usu whu                              
/* REFERENCED TO emu CLOCK AND TO WEIGHTED MEAN POLE:       
/* PCV:IGS14_2189 OL/AL:FES2004  NONE     Y  ORB:CMB CLK:CMB
*  2022  1  7 19 30  0.00000000
PG01  -8848.613416 -13490.883667 -21443.144277    463.278044  7  7  5 208       
PG02 -14250.736300  14818.034666  17540.602358   -648.015503  5  8  6 158       
PG03 -12385.580774 -23076.562550  -4845.496160    -69.453262 13 16 12 214       
PG04  -2957.390855 -20350.853338  16766.554037   -195.972964  8  7  8 221       
PG05    236.348177  20017.553275  17216.797976    -67.104722  8 10  9 212       
PG06 -25490.632890   5717.386487   5059.338972    164.353376  6  7  9 234       
PG07 -22960.537875  -6812.750569  12373.690723    299.464398  3  8  7 205       
PG08   4921.438280 -24769.725159  -7659.258247    -51.205207  6  7  8 149       
PG09 -11950.372245 -10348.058006  21265.902201   -358.588094  6  8  5 220       
PG10  18710.017775   4753.544404 -18237.454650   -287.815914 10  8 11 188       
PG11 -16810.669914  12206.590692  16537.912036    -21.642063 10  9  9 227       
PG12   9022.988121  24103.896320  -7100.190987   -152.417268  2  5  3 186       
PG13 -12875.548873  23058.807476  -2000.274675    241.721085  8 10  9 194       
PG14 -18778.926915  -5411.156396 -18018.164183    -67.319758 10  7  7 214       
PG15  -1326.544078  25124.346551  -8387.822110    -93.268107  9  8  8 217       
PG16   4799.244320 -17488.700022  18973.711918   -452.287960  8  6  6 217       
PG17 -17141.172454   4632.360363 -19328.845611    558.273707  7  8  6 226       
PG18  23117.805660   6226.905824  11604.803485    265.209781  8  7  8 207       
PG19 -18631.315459  11890.621238 -14857.140730    102.549509  6  8  6 224       
PG20  -8268.293109  13669.090781  21236.772032    517.280753  4  7  6 177       
PG21   1225.774175 -15184.702994 -21015.447428    155.611800  9  9  5 173       
PG22  -7332.923561 -22197.345172 -12634.622954   -422.892843  8  8  9 238       
PG23  19778.985436  14677.445046 -10076.199267     13.541217 10  9  7 207       
PG24   4650.914076  15326.337190 -21497.350998    277.033058     4  8 178       
PG25  17352.746578  19968.299682   3432.928991    267.512151  7  8  4 229       
PG26  14352.125734  -6875.639405  21216.388934    172.294539  8  8  8 191       
PG27  12308.959091 -23152.686907   2385.193604     54.680553  3  7  8 200       
PG28 -15265.872081   2412.782170 -21042.828660    426.903825 10  5  8 239       
PG29   8200.094292  14081.775602  20921.118504   -464.353710  7  7  4 180       
PG30 -26515.478999   -288.480870   3112.168247   -505.110863  2  4  7 240       
PG31  24928.870020  -6775.115291   7032.745649   -158.843207  4  6  7 192       
PG32  17559.327975  -9061.273529 -17538.664596    -46.911976  4  4  4 205       
*  2022  1  7 19 45  0.00000000
PG01  -6448.763374 -13795.201734 -22074.410545    463.269180  7  7  5 212       
PG02 -16024.881729  15045.810936  15649.969702   -648.016394  5  8  6 154       
PG03 -11800.402217 -22646.221230  -7600.207465    -69.466207 14 17 13 216       
PG04  -2041.604952 -21921.105528  14801.812150   -195.971496  8  7  8 222       
PG05  -1219.760695  18502.331101  18796.768306    -67.106190  8 10  9 222       
PG06 -25914.889842   5593.650296   2197.815040    164.363054  7  7  9 236       
PG07 -21522.009818  -7173.651786  14579.785854    299.468074  3  8  7 203       
PG08   5425.821720 -25348.212982  -4897.443928    -51.206590  6  6  8 161       
PG09 -10999.614551 -12565.708814  20572.491347   -358.587136  6  8  5 220       
PG10  19829.265401   6414.128684 -16501.558258   -287.824467 10  7 10 188       
PG11 -18597.945102  12156.710619  14539.990974    -21.674006 10 10 10 228       
PG12   8351.687933  23435.242362  -9749.253660   -152.422090  3  5  3 189       
PG13 -13111.925631  22975.968989    878.975944    241.727195  8  9  9 196       
PG14 -19771.313757  -7111.242168 -16287.658815    -67.324752 11  9  7 213       
PG15  -1862.452805  25776.806762  -5735.817146    -93.265574  9  9  7 218       
PG16   6131.821647 -15604.491518  20218.038407   -452.292916  8  8  5 215       
PG17 -16179.610270   2474.646707 -20489.819282    558.278855  7  7  7 227       
PG18  21688.989310   6562.481420  13934.064885    265.203352  8  7  9 208       
PG19 -17905.102795  10263.748423 -16877.371145    102.554055  6  8  6 225       
PG20 -10045.385109  11982.313706  21464.764003    517.280448  4  7  6 181       
PG21   3712.693999 -15613.350177 -20365.655541    155.613116  9  8  4 173       
PG22  -6066.067945 -21205.019701 -14778.464276   -422.885348  8  7  9 185       
PG23  20242.344767  15585.970933  -7453.590167     13.537712 11 11  8 209       
PG24   2289.356974  15800.553494 -21498.459211    277.033442  2  5  7 178       
PG25  17320.529299  20320.958497    610.534675    267.517169  7  8  3 229       
PG26  15876.370064  -5000.616724  20677.604536    172.297686  7  8  9 192       
PG27  12358.783380 -22631.690630   5245.533812     54.701660  4  6  8 201       
PG28 -16507.905438    272.309669 -20226.464225    426.896644 10  6  8 239       
PG29   7075.901223  16130.199809  19820.990517   -464.358439  7  7  5 177       
PG30 -26047.684198   -640.993974   5841.621518   -505.113297  2  4  7 239       
PG31  25604.322111  -6615.301466   4314.157196   -158.844924  4  6  7 193       
PG32  16898.429202  -7037.933090 -19057.730038    -46.917339  4  5  3 204       
*  2022  1  7 20  0  0.00000000
PG01  -4018.330625 -14245.429318 -22336.646545    463.260316  7  7  5 215       
PG02 -17572.285624  15309.368545  13502.478247   -648.017095  5  8  6 167       
PG03 -10994.961976 -22018.090442 -10225.334597    -69.479031 14 16 13 231       
PG04  -1294.178906 -23315.941252  12581.449229   -195.970032  9  7  7 221       
PG05  -2861.611553  16945.846980  20047.511288    -67.107300  7 10  8 225       
PG06 -26024.857152   5433.161151   -701.350028    164.372719  7  7  9 238       
PG07 -19876.760922  -7649.987771  16546.132757    299.471713  4  7  7 199       
PG08   5800.421986 -25647.763567  -2049.620390    -51.208008  6  6  8 180       
PG09 -10193.645134 -14734.855004  19522.574953   -358.586198  7  8  5 220       
PG10  20896.441871   7848.395372 -14482.393414   -287.833024  9  7  9 196       
PG11 -20147.016930  12168.781133  12291.652280    -21.705984 10 10 11 230       
PG12   7474.318982  22572.589653 -12233.541566   -152.427158  5  5  2 187       
PG13 -13205.658663  22613.623727   3742.926622    241.732054  7  9  9 197       
PG14 -20718.126622  -8592.288653 -14277.640856    -67.329751 11 10  8 216       
PG15  -2306.128908  26155.935918  -2984.152835    -93.263283  9  9  7 221       
PG16   7630.868717 -13695.531536  21102.663270   -452.298053  8  8  6 214       
PG17 -15291.930747    161.775708 -21284.554872    558.283813  7  7  8 228       
PG18  20033.390756   7016.452519  16024.632847    265.196881  9  8 10 209       
PG19 -17179.592222   8410.736528 -18610.437114    102.558452  7  7  7 228       
PG20 -11908.719230  10379.838832  21323.245407    517.280252  4  6  6 187       
PG21   6084.079278 -16139.415579 -19339.308316    155.613613  9  8  3 176       
PG22  -4584.065293 -20118.761203 -16667.643443   -422.877114  8  6  9 237       
PG23  20548.974662  16243.941360  -4703.448583     13.534190 12 12  9 212       
PG24    -31.236361  16384.842978 -21138.592997    277.033808  3  5  7 188       
PG25  17099.803040  20433.256817  -2222.221159    267.522207  7  7  2 228       
PG26  17432.357569  -3263.229004  19782.396841    172.300900  7  9  9 193       
PG27  12331.131963 -21808.514930   8013.030081     54.722736  4  6  8 202       
PG28 -17792.298655  -1705.888339 -19043.769967    426.889727 10  8  9 238       
PG29   6124.072733  18105.189595  18378.111467   -464.363032  8  7  6 179       
PG30 -25301.246970  -1065.196604   8472.126737   -505.115745  2  4  7 239       
PG31  25982.046512  -6442.118231   1523.224870   -158.846619  3  6  6 196       
PG32  16292.150642  -4838.464026 -20243.817367    -46.922646  4  6  2 208       
EOF
